[{"OBJECT_NAME":"STARLINK-4307","OBJECT_ID":"2022-077W","EPOCH":"2026-03-09T23:04:41.166048","MEAN_MOTION":15.05647746,"ECCENTRICITY":0.0001391,"INCLINATION":97.602,"RA_OF_ASC_NODE":251.4392,"ARG_OF_PERICENTER":92.2135,"MEAN_ANOMALY":267.9251,"EPHEMERIS_TYPE":0,"CLASSIFICATION_TYPE":"U","NORAD_CAT_ID":53063,"ELEMENT_SET_NO":999,"REV_AT_EPOCH":7260,"BSTAR":1.1770768e-5,"MEAN_MOTION_DOT":1.09e-6,"MEAN_MOTION_DDOT":0},{"OBJECT_NAME":"ATLAS H R\/B","OBJECT_ID":"1987-043B","EPOCH":"2026-03-09T13:01:50.955168","MEAN_MOTION":13.51112774,"ECCENTRICITY":0.07077502,"INCLINATION":63.3177,"RA_OF_ASC_NODE":133.9687,"ARG_OF_PERICENTER":116.0924,"MEAN_ANOMALY":251.4684,"EPHEMERIS_TYPE":0,"CLASSIFICATION_TYPE":"U","NORAD_CAT_ID":17998,"ELEMENT_SET_NO":999,"REV_AT_EPOCH":33779,"BSTAR":0.00041214221,"MEAN_MOTION_DOT":1.232e-5,"MEAN_MOTION_DDOT":0}]
